UNKNOWN                 
1 81481U          19068.51595373  .00010173  00000-0  40777-2 0  9993
2 81481  98.7348 261.7252 0039522 233.9664 125.7851 14.28016827 56810
UNKNOWN                 
1 81488U 75052    19067.22795319 -.00000142  00000-0 -13657-3 0  9993
2 81488 100.0223 213.8035 0044221 352.5597 129.3351 13.55377740261735
UNKNOWN                 
1 81497U          19067.92626365  .00001101  00000-0  14059-2 0  9995
2 81497 100.3308 109.5029 0030975 122.7606 359.8928 13.65526816877649
UNKNOWN                 
1 81499U          19068.05431042  .00000286  00000-0  10804-3 0  9996
2 81499  74.0530  92.5149 0002485 336.9138  23.1903 14.35687003127076
UNKNOWN                 
1 81509U          19068.25571859  .00005911  00000-0  16081-2 0  9993
2 81509  98.9292 173.1040 0038541 192.1250 167.9017 14.47430462105407
UNKNOWN                 
1 81521U          19068.16070897  .00003738  00000-0  82290-3 0  9994
2 81521  99.7218  42.8362 0013129 337.6506  85.2262 14.58156757279974
UNKNOWN                 
1 81535U          19067.73415540  .00000103  00000-0  63039-4 0  9993
2 81535  98.2076 346.8633 0253882  54.9067 307.5624 14.07146922 39452
UNKNOWN                 
1 81536U 73086    19068.26160973  .00000338  00000-0  24106-2 0  9994
2 81536 101.9526 223.9673 0027416 295.7676 185.5306 12.53494613242052
UNKNOWN                 
1 81537U 93016    19064.64391774  .00000097  00000-0  86112-4 0  9992
2 81537  71.0402 178.2095 0081122 274.4159  84.7694 14.05486033272719
UNKNOWN                 
1 81544U          19068.59552074  .01136418  00000-0  15100-1 0  9995
2 81544  86.3994  36.8913 0013833  79.8632 280.4190 15.55367823 69257
UNKNOWN                 
1 81545U          19068.03783334  .00019827  00000-0  69820-2 0  9992
2 81545  98.7956 264.2662 0053371 214.2430 145.5309 14.34027458 66908
UNKNOWN                 
1 81546U          19058.64312167  .00001409  00000-0  18016-3 0  9990
2 81546  66.8080  59.7346 0019810 245.5250 114.3811 14.84622247760710
UNKNOWN                 
1 81552U          19068.48256536  .00000755  00000-0  17557-2 0  9998
2 81552  99.0603 314.5796 0270193 167.0476 193.7762 13.15002946254285
UNKNOWN                 
1 81564U          19067.36948955  .00001717  00000-0  78832-3 0  9993
2 81564  81.1867 310.0079 0038595 319.0423  40.7855 14.20517392213873
UNKNOWN                 
1 81569U 95015    19068.52472036  .00000504  00000-0  25151-2 0  9997
2 81569  28.0752 242.8685 0311875 158.5063 242.4639 12.46210989244476
UNKNOWN                 
1 81579U          19065.60690097  .00000829  00000-0  59771-3 0  9999
2 81579 100.0741 302.1992 0241141 279.3846  78.0122 13.87135046855223
UNKNOWN                 
1 81599U          19067.86999053  .00000324  00000-0  69883-3 0  9990
2 81599  67.2930 209.1249 0259742  53.7571  23.8402 13.28670612803786
UNKNOWN                 
1 81605U          19064.18370350 -.00000168  00000-0 -28695-3 0  9997
2 81605  56.4280 345.8104 0121366  49.6577 308.1316 12.76947313201793
UNKNOWN                 
1 81614U 76077    19066.30614835  .00001786  00000-0  15059-1 0  9992
2 81614 101.4609 199.4781 0359317  10.5213 350.3114 12.16502476694473
UNKNOWN                 
1 81615U 92021    19068.25511097 -.00000064  00000-0  10550-4 0  9995
2 81615  65.8324 343.5684 0826637 185.9200 173.1580 13.22643659834833
UNKNOWN                 
1 81617U 73086    19067.47956293 -.00000051  00000-0 -49224-4 0  9998
2 81617 101.3777 312.1023 0038377  64.4499 296.0537 12.56122375771716
UNKNOWN                 
1 81624U          19067.14862765  .00000589  00000-0  16600-3 0  9991
2 81624  66.9920 348.1428 0086592  95.0227 266.0775 14.50691169879964
UNKNOWN                 
1 81626U          19068.22372795  .00004222  00000-0  11467-2 0  9995
2 81626  71.0135   8.8659 0020047 273.1634  86.7212 14.47992639267844
UNKNOWN                 
1 81634U          19068.44286894  .00043946  00000-0  24087-2 0  9990
2 81634  51.7843  60.2556 1644423 123.1434 253.8107 12.08173550181107
UNKNOWN                 
1 81640U          19067.59219974  .00000068  00000-0  11489-3 0  9998
2 81640  65.8228 133.4690 0994535 356.9284   2.5886 12.55336971731541
UNKNOWN                 
1 81652U 76077    19067.67043469  .00000001  00000-0  69626-4 0  9995
2 81652 102.1507 139.6153 0384063 101.6471  49.6116 13.41044226811635
UNKNOWN                 
1 81661U          19062.21167728  .00001198  00000-0  36460-3 0  9995
2 81661  98.4389 334.5433 0070960 167.7989 192.4940 14.42409827176340
UNKNOWN                 
1 81667U          19067.99951273  .00000299  00000-0  10992-3 0  9990
2 81667  74.0437 278.4815 0018905 109.6095 250.7101 14.36831041101046
UNKNOWN                 
1 81674U          19067.67102030  .00000111  00000-0  11853-3 0  9992
2 81674  66.8249  68.3582 0032118 221.3176 257.9764 14.04630345817277
UNKNOWN                 
1 81678U          19068.57980531  .00001307  00000-0  21633-3 0  9991
2 81678  65.8338 129.4340 0061251 337.8100  96.3377 14.72982280282421
UNKNOWN                 
1 81683U          19068.43958015  .00000371  00000-0  10566-3 0  9997
2 81683  81.2251 335.4150 0030154 160.5183 199.7166 14.43187205868876
UNKNOWN                 
1 81693U 73086    19066.78359707  .00001147  00000-0  88213-2 0  9996
2 81693 101.0910  17.5967 0374374  47.8690 315.3554 12.22692739665385
UNKNOWN                 
1 81696U          19068.47754795  .00001058  00000-0  11262-3 0  9991
2 81696  97.3596  65.5052 0228516 116.9043 245.5718 14.73502900147029
UNKNOWN                 
1 81721U          19064.31465872  .00002727  00000-0  79921-3 0  9994
2 81721  98.1758 196.5853 0368078  69.5815 294.4482 14.11758166180138
UNKNOWN                 
1 81732U          19066.24915759  .00001324  00000-0  18187-3 0  9993
2 81732  65.7390  29.6639 0272089 110.3405 252.7158 14.60020553280253
UNKNOWN                 
1 81745U          19068.39701480  .00000324  00000-0  14580-3 0  9991
2 81745  71.0049 325.7791 0004499 129.0258 347.4036 14.29578190275967
UNKNOWN                 
1 81749U          19067.86765146 -.00000017  00000-0  66354-4 0  9992
2 81749  99.6828  55.9657 0368746 210.2897 272.8679 12.76853123765594
UNKNOWN                 
1 81775U          19067.68706253  .00000595  00000-0  27893-3 0  9999
2 81775  82.9280  56.3014 0024558 147.1095 213.1619 14.18522939273503
UNKNOWN                 
1 81777U          19064.09696461  .00002991  00000-0  37911-3 0  9996
2 81777  98.0402 114.6778 0003499 215.3066 144.7915 14.82505762 60880
UNKNOWN                 
1 81779U          19068.63372976  .00001591  00000-0  31642-1 0  9992
2 81779  53.8801 299.1095 2104087 337.1247  14.7753  9.19498192251763
UNKNOWN                 
1 81792U          19051.13078245  .00000027  00000-0  42483-4 0  9997
2 81792  65.8236 236.8238 0926284 301.3128  50.0402 13.03791030885942
UNKNOWN                 
1 81794U          19067.71140965  .00002748  00000-0  41716-3 0  9998
2 81794  81.1875 228.2760 0005797 239.4729 120.5904 14.73857704843565
UNKNOWN                 
1 81795U          19068.56865671  .00028337  00000-0  17005-2 0  9996
2 81795   6.3470 196.7366 1851548  13.0144 351.1914 11.62871323148152
UNKNOWN                 
1 81798U          19066.52399583  .00001821  00000-0  48656-3 0  9993
2 81798  74.0169 109.0340 0041906  67.3473 293.2109 14.48563269227633
UNKNOWN                 
1 81812U          19066.92250751  .00000685  00000-0  54363-2 0  9995
2 81812 103.5031  58.6812 0322271  85.4847 278.2939 12.27686803747795
UNKNOWN                 
1 81813U          19067.10449658  .00000497  00000-0  16282-3 0  9993
2 81813  99.0188 181.9506 0017701 257.3918 102.5291 14.42997620836987
UNKNOWN                 
1 81816U 77121    19068.24104215 -.00000271  00000-0 -15092-3 0  9997
2 81816  66.2380 291.3506 0190187 244.9293 113.1933 13.83285668835463
UNKNOWN                 
1 81817U          19067.10001555  .00000875  00000-0  11080-3 0  9998
2 81817  65.7294 321.4726 0336123 245.7680 110.7964 14.55360102283542
UNKNOWN                 
1 81818U          19067.60738249  .00000340  00000-0  98334-4 0  9996
2 81818  65.7540 141.6335 0680470 353.8225   5.4739 13.68978012791146
UNKNOWN                 
1 81819U          19067.01808390  .00000184  00000-0  16319-2 0  9994
2 81819 102.3357  95.5582 0032917  34.5667 325.7529 12.44373279829517
UNKNOWN                 
1 81821U          19047.39671244  .00019683 -56303-6  29099-3 0  9990
2 81821  34.0895 110.4557 2384223 214.3048 127.8014 10.72672198287373
UNKNOWN                 
1 81824U          19068.48414000  .00000064  00000-0  75834-4 0  9999
2 81824  65.8497  90.0271 0059112 233.1496 126.4160 14.16467248273453
UNKNOWN                 
1 81833U          19066.91477598 -.00000017  00000-0 -87798-4 0  9998
2 81833  90.3036 302.6076 0027846   5.9901 354.1545 12.92897747133045
UNKNOWN                 
1 81838U          19067.04022403  .00000424  00000-0  17050-3 0  9992
2 81838  67.7677  88.1267 0030830 209.5326 179.4391 14.36359170832694
UNKNOWN                 
1 81844U          19068.39194200  .00000881  00000-0  44645-3 0  9990
2 81844  82.9243  97.0640 0081279   1.6176 358.5248 14.13368799791350
UNKNOWN                 
1 81845U          19065.14688698  .00000177  00000-0  31894-4 0  9991
2 81845  97.9486 304.0890 0106303  44.1827 111.6432 14.74748332284290
UNKNOWN                 
1 81864U          19067.31842665  .00000237  00000-0  12793-3 0  9992
2 81864  65.6753  36.4912 0795777 354.0947   5.1110 13.25562933735136
UNKNOWN                 
1 81865U 87062    19068.45799042  .00000513  00000-0  45635-3 0  9990
2 81865  82.8068 121.4700 0071777 133.5495 290.0027 13.81759578266925
UNKNOWN                 
1 81872U          19068.28595872  .00013581  00000-0  88828-3 0  9991
2 81872  62.0072 134.6059 2207556  83.8274 300.7705 10.89342671 61439
